{
  "type": "FeatureCollection",
  "features": [
    {
      "type": "Feature",
      "properties": {
        "norad_id": 66539,
        "name": "STARLINK-35697",
        "group": "last-30-days",
        "lat": -41.738800157957776,
        "lon": -65.75745148368388,
        "alt_km": 416.8294130529657,
        "timestamp": "2025-12-14T22:38:39.516596+00:00",
        "meta_object_name": "STARLINK-35697",
        "meta_object_id": "2025-265Z",
        "meta_epoch": "2025-12-14T04:32:04.248384",
        "meta_mean_motion": 15.50597222,
        "meta_eccentricity": 0.00014167,
        "meta_inclination": 43.0002,
        "meta_ra_of_asc_node": 45.4367,
        "meta_arg_of_pericenter": 276.0438,
        "meta_mean_anomaly": 84.0261,
        "meta_ephemeris_type": 0,
        "meta_classification_type": "U",
        "meta_norad_cat_id": 66539,
        "meta_element_set_no": 999,
        "meta_rev_at_epoch": 398,
        "meta_bstar": 0.002306801,
        "meta_mean_motion_dot": 0.00137479,
        "meta_mean_motion_ddot": 0,
        "tle_line1": "1 66539U 25265Z   25348.18893806  .00137479  00000+0  23068-2 0  9995",
        "tle_line2": "2 66539  43.0002  45.4367 0001416 276.0438  84.0261 15.50597222  3980"
      },
      "geometry": {
        "type": "Point",
        "coordinates": [
          -65.75745148368388,
          -41.738800157957776
        ]
      }
    },
    {
      "type": "Feature",
      "properties": {
        "norad_id": 66540,
        "name": "STARLINK-35818",
        "group": "last-30-days",
        "lat": -42.075748546224354,
        "lon": -63.3098566745285,
        "alt_km": 416.9676825225688,
        "timestamp": "2025-12-14T22:38:39.516606+00:00",
        "meta_object_name": "STARLINK-35818",
        "meta_object_id": "2025-265AA",
        "meta_epoch": "2025-12-14T04:31:34.410144",
        "meta_mean_motion": 15.50598715,
        "meta_eccentricity": 0.00014817,
        "meta_inclination": 42.9976,
        "meta_ra_of_asc_node": 45.4323,
        "meta_arg_of_pericenter": 279.9955,
        "meta_mean_anomaly": 80.0737,
        "meta_ephemeris_type": 0,
        "meta_classification_type": "U",
        "meta_norad_cat_id": 66540,
        "meta_element_set_no": 999,
        "meta_rev_at_epoch": 398,
        "meta_bstar": 0.0017001066,
        "meta_mean_motion_dot": 0.0010076,
        "meta_mean_motion_ddot": 0,
        "tle_line1": "1 66540U 25265AA  25348.18859271  .00100760  00000+0  17001-2 0  9998",
        "tle_line2": "2 66540  42.9976  45.4323 0001481 279.9955  80.0737 15.50598715  3982"
      },
      "geometry": {
        "type": "Point",
        "coordinates": [
          -63.3098566745285,
          -42.075748546224354
        ]
      }
    },
    {
      "type": "Feature",
      "properties": {
        "norad_id": 66541,
        "name": "STARLINK-35796",
        "group": "last-30-days",
        "lat": -26.285212846989896,
        "lon": -106.87976886241682,
        "alt_km": 445.56151431125636,
        "timestamp": "2025-12-14T22:38:39.516616+00:00",
        "meta_object_name": "STARLINK-35796",
        "meta_object_id": "2025-265AB",
        "meta_epoch": "2025-12-14T06:00:02.999808",
        "meta_mean_motion": 15.43476424,
        "meta_eccentricity": 8.487e-05,
        "meta_inclination": 43.0002,
        "meta_ra_of_asc_node": 45.1189,
        "meta_arg_of_pericenter": 273.1235,
        "meta_mean_anomaly": 52.6815,
        "meta_ephemeris_type": 0,
        "meta_classification_type": "U",
        "meta_norad_cat_id": 66541,
        "meta_element_set_no": 999,
        "meta_rev_at_epoch": 523,
        "meta_bstar": -0.042276153,
        "meta_mean_motion_dot": -0.01753042,
        "meta_mean_motion_ddot": 0,
        "tle_line1": "1 66541U 25265AB  25348.25003472 -.01753042  00000+0 -42276-1 0  9992",
        "tle_line2": "2 66541  43.0002  45.1189 0000848 273.1235  52.6815 15.43476424  5231"
      },
      "geometry": {
        "type": "Point",
        "coordinates": [
          -106.87976886241682,
          -26.285212846989896
        ]
      }
    },
    {
      "type": "Feature",
      "properties": {
        "norad_id": 66542,
        "name": "STARLINK-35833",
        "group": "last-30-days",
        "lat": -42.64114682056869,
        "lon": -57.782356073461536,
        "alt_km": 416.62751460709933,
        "timestamp": "2025-12-14T22:38:39.516626+00:00",
        "meta_object_name": "STARLINK-35833",
        "meta_object_id": "2025-265AC",
        "meta_epoch": "2025-12-13T20:46:47.765568",
        "meta_mean_motion": 15.50597486,
        "meta_eccentricity": 0.0001633,
        "meta_inclination": 42.9989,
        "meta_ra_of_asc_node": 47.3121,
        "meta_arg_of_pericenter": 282.13,
        "meta_mean_anomaly": 77.9378,
        "meta_ephemeris_type": 0,
        "meta_classification_type": "U",
        "meta_norad_cat_id": 66542,
        "meta_element_set_no": 999,
        "meta_rev_at_epoch": 393,
        "meta_bstar": 0.0019500496,
        "meta_mean_motion_dot": 0.00115843,
        "meta_mean_motion_ddot": 0,
        "tle_line1": "1 66542U 25265AC  25347.86583062  .00115843  00000+0  19500-2 0  9990",
        "tle_line2": "2 66542  42.9989  47.3121 0001633 282.1300  77.9378 15.50597486  3939"
      },
      "geometry": {
        "type": "Point",
        "coordinates": [
          -57.782356073461536,
          -42.64114682056869
        ]
      }
    },
    {
      "type": "Feature",
      "properties": {
        "norad_id": 66543,
        "name": "STARLINK-35315",
        "group": "last-30-days",
        "lat": -42.79341379472861,
        "lon": -55.52650796802322,
        "alt_km": 417.11029826362847,
        "timestamp": "2025-12-14T22:38:39.516636+00:00",
        "meta_object_name": "STARLINK-35315",
        "meta_object_id": "2025-265AD",
        "meta_epoch": "2025-12-13T20:46:18.204672",
        "meta_mean_motion": 15.50578054,
        "meta_eccentricity": 0.00012545,
        "meta_inclination": 42.9997,
        "meta_ra_of_asc_node": 47.3094,
        "meta_arg_of_pericenter": 267.5322,
        "meta_mean_anomaly": 92.5394,
        "meta_ephemeris_type": 0,
        "meta_classification_type": "U",
        "meta_norad_cat_id": 66543,
        "meta_element_set_no": 999,
        "meta_rev_at_epoch": 393,
        "meta_bstar": 0.0012393516,
        "meta_mean_motion_dot": 0.00073044,
        "meta_mean_motion_ddot": 0,
        "tle_line1": "1 66543U 25265AD  25347.86548848  .00073044  00000+0  12394-2 0  9994",
        "tle_line2": "2 66543  42.9997  47.3094 0001254 267.5322  92.5394 15.50578054  3939"
      },
      "geometry": {
        "type": "Point",
        "coordinates": [
          -55.52650796802322,
          -42.79341379472861
        ]
      }
    },
    {
      "type": "Feature",
      "properties": {
        "norad_id": 66544,
        "name": "STARLINK-35728",
        "group": "last-30-days",
        "lat": -42.91077962025144,
        "lon": -52.94572435382502,
        "alt_km": 416.93208193052305,
        "timestamp": "2025-12-14T22:38:39.516647+00:00",
        "meta_object_name": "STARLINK-35728",
        "meta_object_id": "2025-265AE",
        "meta_epoch": "2025-12-14T04:29:36.065472",
        "meta_mean_motion": 15.50598,
        "meta_eccentricity": 0.0001302,
        "meta_inclination": 42.9989,
        "meta_ra_of_asc_node": 45.4216,
        "meta_arg_of_pericenter": 261.1276,
        "meta_mean_anomaly": 98.9437,
        "meta_ephemeris_type": 0,
        "meta_classification_type": "U",
        "meta_norad_cat_id": 66544,
        "meta_element_set_no": 999,
        "meta_rev_at_epoch": 398,
        "meta_bstar": 0.0020737352,
        "meta_mean_motion_dot": 0.00123332,
        "meta_mean_motion_ddot": 0,
        "tle_line1": "1 66544U 25265AE  25348.18722298  .00123332  00000+0  20737-2 0  9990",
        "tle_line2": "2 66544  42.9989  45.4216 0001302 261.1276  98.9437 15.50598000  3984"
      },
      "geometry": {
        "type": "Point",
        "coordinates": [
          -52.94572435382502,
          -42.91077962025144
        ]
      }
    },
    {
      "type": "Feature",
      "properties": {
        "norad_id": 66545,
        "name": "SHIJIAN-30A",
        "group": "last-30-days",
        "lat": 41.31531252136062,
        "lon": 6.344545102345342,
        "alt_km": 508.49604194841595,
        "timestamp": "2025-12-14T22:38:39.516658+00:00",
        "meta_object_name": "SHIJIAN-30A",
        "meta_object_id": "2025-266A",
        "meta_epoch": "2025-12-14T16:03:47.469888",
        "meta_mean_motion": 15.15499825,
        "meta_eccentricity": 0.0012881,
        "meta_inclination": 51.7981,
        "meta_ra_of_asc_node": 323.8228,
        "meta_arg_of_pericenter": 3.4113,
        "meta_mean_anomaly": 356.6949,
        "meta_ephemeris_type": 0,
        "meta_classification_type": "U",
        "meta_norad_cat_id": 66545,
        "meta_element_set_no": 999,
        "meta_rev_at_epoch": 387,
        "meta_bstar": 0.00055329,
        "meta_mean_motion_dot": 0.00010334,
        "meta_mean_motion_ddot": 0,
        "tle_line1": "1 66545U 25266A   25348.66929942  .00010334  00000+0  55329-3 0  9993",
        "tle_line2": "2 66545  51.7981 323.8228 0012881   3.4113 356.6949 15.15499825  3878"
      },
      "geometry": {
        "type": "Point",
        "coordinates": [
          6.344545102345342,
          41.31531252136062
        ]
      }
    }
  ]
}